[{"CCSDS_OMM_VERS":"2.0","COMMENT":"GENERATED VIA SPACE-TRACK.ORG API","CREATION_DATE":"2004-08-15T23:35:47","ORIGINATOR":"18 SPCS","OBJECT_NAME":"OPS 3014","OBJECT_ID":"1966-069A","CENTER_NAME":"EARTH","REF_FRAME":"TEME","TIME_SYSTEM":"UTC","MEAN_ELEMENT_THEORY":"SGP4","EPOCH":"1966-08-05T21:20:31.934400","MEAN_MOTION":"16.22389749","ECCENTRICITY":"0.00936010","INCLINATION":"94.1291","RA_OF_ASC_NODE":"286.9542","ARG_OF_PERICENTER":"132.3138","MEAN_ANOMALY":"228.5336","EPHEMERIS_TYPE":"0","CLASSIFICATION_TYPE":"U","NORAD_CAT_ID":"2376","ELEMENT_SET_NO":"999","REV_AT_EPOCH":"116","BSTAR":"0.00000000000000","MEAN_MOTION_DOT":"0.00419011","MEAN_MOTION_DDOT":"0.0019057000000","SEMIMAJOR_AXIS":"6591.212","PERIOD":"88.757","APOAPSIS":"274.772","PERIAPSIS":"151.383","OBJECT_TYPE":"PAYLOAD","RCS_SIZE":null,"COUNTRY_CODE":null,"LAUNCH_DATE":null,"SITE":null,"DECAY_DATE":"1966-08-06","FILE":"33914","GP_ID":"8720835","TLE_LINE0":"0 OPS 3014","TLE_LINE1":"1 02376U 66069  A 66217.88925850  .00419011 +19057-2 +00000-0 0  9992","TLE_LINE2":"2 02376 094.1291 286.9542 0093601 132.3138 228.5336 16.22389749001160"},{"CCSDS_OMM_VERS":"2.0","COMMENT":"GENERATED VIA SPACE-TRACK.ORG API","CREATION_DATE":"2004-08-15T23:35:47","ORIGINATOR":"18 SPCS","OBJECT_NAME":"SL-8 DEB","OBJECT_ID":"1965-020CH","CENTER_NAME":"EARTH","REF_FRAME":"TEME","TIME_SYSTEM":"UTC","MEAN_ELEMENT_THEORY":"SGP4","EPOCH":"1966-08-08T12:14:25.101599","MEAN_MOTION":"15.88234679","ECCENTRICITY":"0.01638100","INCLINATION":"56.0491","RA_OF_ASC_NODE":"239.1825","ARG_OF_PERICENTER":"343.2313","MEAN_ANOMALY":"16.3211","EPHEMERIS_TYPE":"0","CLASSIFICATION_TYPE":"U","NORAD_CAT_ID":"1537","ELEMENT_SET_NO":"999","REV_AT_EPOCH":"7345","BSTAR":"0.00000000000000","MEAN_MOTION_DOT":"0.01376358","MEAN_MOTION_DDOT":"0.0038561000000","SEMIMAJOR_AXIS":"6685.373","PERIOD":"90.666","APOAPSIS":"416.751","PERIAPSIS":"197.725","OBJECT_TYPE":"DEBRIS","RCS_SIZE":null,"COUNTRY_CODE":null,"LAUNCH_DATE":null,"SITE":null,"DECAY_DATE":"1966-08-17","FILE":"33914","GP_ID":"8712954","TLE_LINE0":"0 SL-8 DEB","TLE_LINE1":"1 01537U 65020 CH 66220.51001275  .01376358 +38561-2 +00000-0 0  9994","TLE_LINE2":"2 01537 056.0491 239.1825 0163810 343.2313 016.3211 15.88234679073457"},{"CCSDS_OMM_VERS":"2.0","COMMENT":"GENERATED VIA SPACE-TRACK.ORG API","CREATION_DATE":"2004-08-15T23:35:47","ORIGINATOR":"18 SPCS","OBJECT_NAME":"SL-3 R\/B","OBJECT_ID":"1966-068B","CENTER_NAME":"EARTH","REF_FRAME":"TEME","TIME_SYSTEM":"UTC","MEAN_ELEMENT_THEORY":"SGP4","EPOCH":"1966-08-08T16:12:50.550048","MEAN_MOTION":"16.26268226","ECCENTRICITY":"0.00395280","INCLINATION":"51.7712","RA_OF_ASC_NODE":"58.2385","ARG_OF_PERICENTER":"85.9620","MEAN_ANOMALY":"274.4978","EPHEMERIS_TYPE":"0","CLASSIFICATION_TYPE":"U","NORAD_CAT_ID":"2369","ELEMENT_SET_NO":"999","REV_AT_EPOCH":"181","BSTAR":"0.00000000000000","MEAN_MOTION_DOT":"0.03354860","MEAN_MOTION_DDOT":"0.1325000000000","SEMIMAJOR_AXIS":"6580.728","PERIOD":"88.546","APOAPSIS":"228.606","PERIAPSIS":"176.581","OBJECT_TYPE":"ROCKET BODY","RCS_SIZE":null,"COUNTRY_CODE":null,"LAUNCH_DATE":null,"SITE":null,"DECAY_DATE":"1966-08-10","FILE":"33914","GP_ID":"8720781","TLE_LINE0":"0 SL-3 R\/B","TLE_LINE1":"1 02369U 66068  B 66220.67558507  .03354860 +13250-0 +00000-0 0  9995","TLE_LINE2":"2 02369 051.7712 058.2385 0039528 085.9620 274.4978 16.26268226001815"},{"CCSDS_OMM_VERS":"2.0","COMMENT":"GENERATED VIA SPACE-TRACK.ORG API","CREATION_DATE":"2004-08-15T23:35:47","ORIGINATOR":"18 SPCS","OBJECT_NAME":"SL-3 R\/B","OBJECT_ID":"1966-071B","CENTER_NAME":"EARTH","REF_FRAME":"TEME","TIME_SYSTEM":"UTC","MEAN_ELEMENT_THEORY":"SGP4","EPOCH":"1966-08-10T04:47:53.865599","MEAN_MOTION":"16.22307920","ECCENTRICITY":"0.00525690","INCLINATION":"51.8281","RA_OF_ASC_NODE":"130.3943","ARG_OF_PERICENTER":"12.6294","MEAN_ANOMALY":"347.5843","EPHEMERIS_TYPE":"0","CLASSIFICATION_TYPE":"U","NORAD_CAT_ID":"2392","ELEMENT_SET_NO":"999","REV_AT_EPOCH":"28","BSTAR":"0.00000000000000","MEAN_MOTION_DOT":"0.02529015","MEAN_MOTION_DDOT":"0.0693630000000","SEMIMAJOR_AXIS":"6591.434","PERIOD":"88.762","APOAPSIS":"247.949","PERIAPSIS":"178.648","OBJECT_TYPE":"ROCKET BODY","RCS_SIZE":null,"COUNTRY_CODE":null,"LAUNCH_DATE":null,"SITE":null,"DECAY_DATE":"1966-08-12","FILE":"33914","GP_ID":"8721003","TLE_LINE0":"0 SL-3 R\/B","TLE_LINE1":"1 02392U 66071  B 66222.19992900  .02529015 +69363-1 +00000-0 0  9995","TLE_LINE2":"2 02392 051.8281 130.3943 0052569 012.6294 347.5843 16.22307920000283"},{"CCSDS_OMM_VERS":"2.0","COMMENT":"GENERATED VIA SPACE-TRACK.ORG API","CREATION_DATE":"2004-08-15T23:35:47","ORIGINATOR":"18 SPCS","OBJECT_NAME":"TITAN 2 DEB","OBJECT_ID":"1966-066H","CENTER_NAME":"EARTH","REF_FRAME":"TEME","TIME_SYSTEM":"UTC","MEAN_ELEMENT_THEORY":"SGP4","EPOCH":"1966-08-10T10:33:13.786559","MEAN_MOTION":"15.63278479","ECCENTRICITY":"0.00061980","INCLINATION":"28.8551","RA_OF_ASC_NODE":"288.2821","ARG_OF_PERICENTER":"346.1302","MEAN_ANOMALY":"13.8822","EPHEMERIS_TYPE":"0","CLASSIFICATION_TYPE":"U","NORAD_CAT_ID":"2382","ELEMENT_SET_NO":"999","REV_AT_EPOCH":"352","BSTAR":"0.00000000000000","MEAN_MOTION_DOT":"0.00176273","MEAN_MOTION_DDOT":"0.0000506720000","SEMIMAJOR_AXIS":"6756.335","PERIOD":"92.114","APOAPSIS":"382.388","PERIAPSIS":"374.013","OBJECT_TYPE":"DEBRIS","RCS_SIZE":null,"COUNTRY_CODE":null,"LAUNCH_DATE":null,"SITE":null,"DECAY_DATE":"1966-10-20","FILE":"33914","GP_ID":"8720911","TLE_LINE0":"0 TITAN 2 DEB","TLE_LINE1":"1 02382U 66066  H 66222.43974290  .00176273 +50672-4 +00000-0 0  9995","TLE_LINE2":"2 02382 028.8551 288.2821 0006198 346.1302 013.8822 15.63278479003526"},{"CCSDS_OMM_VERS":"2.0","COMMENT":"GENERATED VIA SPACE-TRACK.ORG API","CREATION_DATE":"2004-08-15T23:35:47","ORIGINATOR":"18 SPCS","OBJECT_NAME":"TITAN 2 DEB","OBJECT_ID":"1966-066F","CENTER_NAME":"EARTH","REF_FRAME":"TEME","TIME_SYSTEM":"UTC","MEAN_ELEMENT_THEORY":"SGP4","EPOCH":"1966-08-10T12:53:08.963519","MEAN_MOTION":"15.78973027","ECCENTRICITY":"0.00549280","INCLINATION":"28.8670","RA_OF_ASC_NODE":"283.8686","ARG_OF_PERICENTER":"356.2934","MEAN_ANOMALY":"3.7213","EPHEMERIS_TYPE":"0","CLASSIFICATION_TYPE":"U","NORAD_CAT_ID":"2357","ELEMENT_SET_NO":"999","REV_AT_EPOCH":"356","BSTAR":"0.00000000000000","MEAN_MOTION_DOT":"0.00088627","MEAN_MOTION_DDOT":"0.0000145950000","SEMIMAJOR_AXIS":"6711.490","PERIOD":"91.198","APOAPSIS":"370.220","PERIAPSIS":"296.490","OBJECT_TYPE":"DEBRIS","RCS_SIZE":null,"COUNTRY_CODE":null,"LAUNCH_DATE":null,"SITE":null,"DECAY_DATE":"1966-10-15","FILE":"33914","GP_ID":"8720648","TLE_LINE0":"0 TITAN 2 DEB","TLE_LINE1":"1 02357U 66066  F 66222.53690930  .00088627 +14595-4 +00000-0 0  9993","TLE_LINE2":"2 02357 028.8670 283.8686 0054928 356.2934 003.7213 15.78973027003560"},{"CCSDS_OMM_VERS":"2.0","COMMENT":"GENERATED VIA SPACE-TRACK.ORG API","CREATION_DATE":"2004-08-15T23:35:47","ORIGINATOR":"18 SPCS","OBJECT_NAME":"COSMOS 53","OBJECT_ID":"1965-006A","CENTER_NAME":"EARTH","REF_FRAME":"TEME","TIME_SYSTEM":"UTC","MEAN_ELEMENT_THEORY":"SGP4","EPOCH":"1966-08-11T05:20:18.716640","MEAN_MOTION":"16.33786382","ECCENTRICITY":"0.00484700","INCLINATION":"48.6430","RA_OF_ASC_NODE":"326.2639","ARG_OF_PERICENTER":"54.8919","MEAN_ANOMALY":"305.5894","EPHEMERIS_TYPE":"0","CLASSIFICATION_TYPE":"U","NORAD_CAT_ID":"983","ELEMENT_SET_NO":"999","REV_AT_EPOCH":"8423","BSTAR":"0.00000000000000","MEAN_MOTION_DOT":"0.05673887","MEAN_MOTION_DDOT":"0.4601500000000","SEMIMAJOR_AXIS":"6560.525","PERIOD":"88.138","APOAPSIS":"214.189","PERIAPSIS":"150.591","OBJECT_TYPE":"PAYLOAD","RCS_SIZE":null,"COUNTRY_CODE":null,"LAUNCH_DATE":null,"SITE":null,"DECAY_DATE":"1966-08-12","FILE":"33914","GP_ID":"8709086","TLE_LINE0":"0 COSMOS 53","TLE_LINE1":"1 00983U 65006  A 66223.22243885  .05673887 +46015-0 +00000-0 0  9990","TLE_LINE2":"2 00983 048.6430 326.2639 0048470 054.8919 305.5894 16.33786382084235"},{"CCSDS_OMM_VERS":"2.0","COMMENT":"GENERATED VIA SPACE-TRACK.ORG API","CREATION_DATE":"2004-08-15T23:35:47","ORIGINATOR":"18 SPCS","OBJECT_NAME":"TITAN 3C TRANSTAGE DEB","OBJECT_ID":"1965-082FW","CENTER_NAME":"EARTH","REF_FRAME":"TEME","TIME_SYSTEM":"UTC","MEAN_ELEMENT_THEORY":"SGP4","EPOCH":"1966-08-11T23:13:27.222815","MEAN_MOTION":"15.49775267","ECCENTRICITY":"0.00372050","INCLINATION":"31.9593","RA_OF_ASC_NODE":"97.2515","ARG_OF_PERICENTER":"60.6817","MEAN_ANOMALY":"299.7011","EPHEMERIS_TYPE":"0","CLASSIFICATION_TYPE":"U","NORAD_CAT_ID":"1912","ELEMENT_SET_NO":"999","REV_AT_EPOCH":"4381","BSTAR":"0.00000000000000","MEAN_MOTION_DOT":"0.03981210","MEAN_MOTION_DDOT":"0.0480730000000","SEMIMAJOR_AXIS":"6795.524","PERIOD":"92.916","APOAPSIS":"442.672","PERIAPSIS":"392.106","OBJECT_TYPE":"DEBRIS","RCS_SIZE":null,"COUNTRY_CODE":null,"LAUNCH_DATE":null,"SITE":null,"DECAY_DATE":"1966-08-14","FILE":"33914","GP_ID":"8717938","TLE_LINE0":"0 TITAN 3C TRANSTAGE DEB","TLE_LINE1":"1 01912U 65082 FW 66223.96767619  .03981210 +48073-1 +00000-0 0  9991","TLE_LINE2":"2 01912 031.9593 097.2515 0037205 060.6817 299.7011 15.49775267043817"}]